{
  "type": "FeatureCollection",
  "features": [
    {
      "type": "Feature",
      "properties": {
        "norad_id": 40118,
        "name": "GAOFEN-2",
        "group": "resource",
        "lat": -31.94864954990271,
        "lon": -133.89348303207694,
        "alt_km": 635.9360808030888,
        "timestamp": "2025-12-17T23:38:06.520220+00:00",
        "meta_object_name": "GAOFEN-2",
        "meta_object_id": "2014-049A",
        "meta_epoch": "2025-12-17T14:34:15.194784",
        "meta_mean_motion": 14.80619404,
        "meta_eccentricity": 0.00086965,
        "meta_inclination": 98.0385,
        "meta_ra_of_asc_node": 50.7843,
        "meta_arg_of_pericenter": 99.4635,
        "meta_mean_anomaly": 260.756,
        "meta_ephemeris_type": 0,
        "meta_classification_type": "U",
        "meta_norad_cat_id": 40118,
        "meta_element_set_no": 999,
        "meta_rev_at_epoch": 61236,
        "meta_bstar": 0.00013266329,
        "meta_mean_motion_dot": 9.65e-06,
        "meta_mean_motion_ddot": 0,
        "tle_line1": "1 40118U 14049A   25351.60712031  .00000965  00000+0  13266-3 0  9998",
        "tle_line2": "2 40118  98.0385  50.7843 0008696  99.4635 260.7560 14.80619404612362"
      },
      "geometry": {
        "type": "Point",
        "coordinates": [
          -133.89348303207694,
          -31.94864954990271
        ]
      }
    },
    {
      "type": "Feature",
      "properties": {
        "norad_id": 40143,
        "name": "YAOGAN-21",
        "group": "resource",
        "lat": -82.42990380068825,
        "lon": 143.64295619177742,
        "alt_km": 504.856540275885,
        "timestamp": "2025-12-17T23:38:06.520230+00:00",
        "meta_object_name": "YAOGAN-21",
        "meta_object_id": "2014-053A",
        "meta_epoch": "2025-12-17T16:09:34.343424",
        "meta_mean_motion": 15.23725631,
        "meta_eccentricity": 0.00093086,
        "meta_inclination": 97.1751,
        "meta_ra_of_asc_node": 34.7722,
        "meta_arg_of_pericenter": 25.3848,
        "meta_mean_anomaly": 334.7845,
        "meta_ephemeris_type": 0,
        "meta_classification_type": "U",
        "meta_norad_cat_id": 40143,
        "meta_element_set_no": 999,
        "meta_rev_at_epoch": 62729,
        "meta_bstar": 0.00013482381,
        "meta_mean_motion_dot": 3.175e-05,
        "meta_mean_motion_ddot": 0,
        "tle_line1": "1 40143U 14053A   25351.67331416  .00003175  00000+0  13482-3 0  9998",
        "tle_line2": "2 40143  97.1751  34.7722 0009308  25.3848 334.7845 15.23725631627294"
      },
      "geometry": {
        "type": "Point",
        "coordinates": [
          143.64295619177742,
          -82.42990380068825
        ]
      }
    },
    {
      "type": "Feature",
      "properties": {
        "norad_id": 40275,
        "name": "YAOGAN-22",
        "group": "resource",
        "lat": 40.68526662323766,
        "lon": -35.129701200514106,
        "alt_km": 1199.0251868491887,
        "timestamp": "2025-12-17T23:38:06.520241+00:00",
        "meta_object_name": "YAOGAN-22",
        "meta_object_id": "2014-063A",
        "meta_epoch": "2025-12-17T10:09:25.054560",
        "meta_mean_motion": 13.15522862,
        "meta_eccentricity": 0.00059894,
        "meta_inclination": 100.7424,
        "meta_ra_of_asc_node": 134.9088,
        "meta_arg_of_pericenter": 236.7844,
        "meta_mean_anomaly": 123.2694,
        "meta_ephemeris_type": 0,
        "meta_classification_type": "U",
        "meta_norad_cat_id": 40275,
        "meta_element_set_no": 999,
        "meta_rev_at_epoch": 53591,
        "meta_bstar": 5.1063601e-05,
        "meta_mean_motion_dot": -2.7e-07,
        "meta_mean_motion_ddot": 0,
        "tle_line1": "1 40275U 14063A   25351.42320665 -.00000027  00000+0  51064-4 0  9995",
        "tle_line2": "2 40275 100.7424 134.9088 0005989 236.7844 123.2694 13.15522862535911"
      },
      "geometry": {
        "type": "Point",
        "coordinates": [
          -35.129701200514106,
          40.68526662323766
        ]
      }
    },
    {
      "type": "Feature",
      "properties": {
        "norad_id": 40298,
        "name": "ASNARO",
        "group": "resource",
        "lat": -56.73537614977846,
        "lon": -123.56905333720907,
        "alt_km": 516.6219602901156,
        "timestamp": "2025-12-17T23:38:06.520251+00:00",
        "meta_object_name": "ASNARO",
        "meta_object_id": "2014-070A",
        "meta_epoch": "2025-12-17T14:41:31.887168",
        "meta_mean_motion": 15.19602693,
        "meta_eccentricity": 0.00056551,
        "meta_inclination": 97.3654,
        "meta_ra_of_asc_node": 67.4399,
        "meta_arg_of_pericenter": 108.8957,
        "meta_mean_anomaly": 251.2892,
        "meta_ephemeris_type": 0,
        "meta_classification_type": "U",
        "meta_norad_cat_id": 40298,
        "meta_element_set_no": 999,
        "meta_rev_at_epoch": 61643,
        "meta_bstar": 0.00055744058,
        "meta_mean_motion_dot": 0.00011816,
        "meta_mean_motion_ddot": 0,
        "tle_line1": "1 40298U 14070A   25351.61217462  .00011816  00000+0  55744-3 0  9994",
        "tle_line2": "2 40298  97.3654  67.4399 0005655 108.8957 251.2892 15.19602693616437"
      },
      "geometry": {
        "type": "Point",
        "coordinates": [
          -123.56905333720907,
          -56.73537614977846
        ]
      }
    },
    {
      "type": "Feature",
      "properties": {
        "norad_id": 40310,
        "name": "YAOGAN-24",
        "group": "resource",
        "lat": 66.32011765243162,
        "lon": -37.89232612453919,
        "alt_km": 624.5751822863995,
        "timestamp": "2025-12-17T23:38:06.520261+00:00",
        "meta_object_name": "YAOGAN-24",
        "meta_object_id": "2014-072A",
        "meta_epoch": "2025-12-17T14:59:41.640000",
        "meta_mean_motion": 14.7618861,
        "meta_eccentricity": 0.00149362,
        "meta_inclination": 98.1213,
        "meta_ra_of_asc_node": 122.7434,
        "meta_arg_of_pericenter": 123.2145,
        "meta_mean_anomaly": 237.0498,
        "meta_ephemeris_type": 0,
        "meta_classification_type": "U",
        "meta_norad_cat_id": 40310,
        "meta_element_set_no": 999,
        "meta_rev_at_epoch": 59693,
        "meta_bstar": 0.00014342359,
        "meta_mean_motion_dot": 9.41e-06,
        "meta_mean_motion_ddot": 0,
        "tle_line1": "1 40310U 14072A   25351.62478750  .00000941  00000+0  14342-3 0  9997",
        "tle_line2": "2 40310  98.1213 122.7434 0014936 123.2145 237.0498 14.76188610596935"
      },
      "geometry": {
        "type": "Point",
        "coordinates": [
          -37.89232612453919,
          66.32011765243162
        ]
      }
    },
    {
      "type": "Feature",
      "properties": {
        "norad_id": 40336,
        "name": "CBERS 4",
        "group": "resource",
        "lat": 13.597615725367453,
        "lon": -128.14627339103805,
        "alt_km": 773.7321671876052,
        "timestamp": "2025-12-17T23:38:06.520271+00:00",
        "meta_object_name": "CBERS 4",
        "meta_object_id": "2014-079A",
        "meta_epoch": "2025-12-17T16:10:21.021024",
        "meta_mean_motion": 14.3551994,
        "meta_eccentricity": 0.00017622,
        "meta_inclination": 98.3309,
        "meta_ra_of_asc_node": 49.5223,
        "meta_arg_of_pericenter": 106.8033,
        "meta_mean_anomaly": 253.3347,
        "meta_ephemeris_type": 0,
        "meta_classification_type": "U",
        "meta_norad_cat_id": 40336,
        "meta_element_set_no": 999,
        "meta_rev_at_epoch": 57791,
        "meta_bstar": 8.618964e-05,
        "meta_mean_motion_dot": 2.06e-06,
        "meta_mean_motion_ddot": 0,
        "tle_line1": "1 40336U 14079A   25351.67385441  .00000206  00000+0  86190-4 0  9996",
        "tle_line2": "2 40336  98.3309  49.5223 0001762 106.8033 253.3347 14.35519940577919"
      },
      "geometry": {
        "type": "Point",
        "coordinates": [
          -128.14627339103805,
          13.597615725367453
        ]
      }
    },
    {
      "type": "Feature",
      "properties": {
        "norad_id": 40362,
        "name": "YAOGAN-26",
        "group": "resource",
        "lat": -79.22820047470141,
        "lon": 33.14523547753865,
        "alt_km": 455.36505363391825,
        "timestamp": "2025-12-17T23:38:06.520281+00:00",
        "meta_object_name": "YAOGAN-26",
        "meta_object_id": "2014-088A",
        "meta_epoch": "2025-12-17T14:37:48.368640",
        "meta_mean_motion": 15.39468525,
        "meta_eccentricity": 0.00055903,
        "meta_inclination": 97.0633,
        "meta_ra_of_asc_node": 352.1102,
        "meta_arg_of_pericenter": 14.7772,
        "meta_mean_anomaly": 345.3637,
        "meta_ephemeris_type": 0,
        "meta_classification_type": "U",
        "meta_norad_cat_id": 40362,
        "meta_element_set_no": 999,
        "meta_rev_at_epoch": 60969,
        "meta_bstar": 0.00035762306,
        "meta_mean_motion_dot": 0.00013959,
        "meta_mean_motion_ddot": 0,
        "tle_line1": "1 40362U 14088A   25351.60958760  .00013959  00000+0  35762-3 0  9995",
        "tle_line2": "2 40362  97.0633 352.1102 0005590  14.7772 345.3637 15.39468525609695"
      },
      "geometry": {
        "type": "Point",
        "coordinates": [
          33.14523547753865,
          -79.22820047470141
        ]
      }
    }
  ]
}